     2.11           N: GPS NAV DATA                         RINEX VERSION / TYPE
teqc  2019Feb25                         20221121 12:25:12UTCPGM / RUN BY / DATE
OSX ker:10.11.6|Core i5|gcc 4.3 -m64|OSX ker:10.10+|=+      COMMENT
    4.6566D-09  1.4901D-08 -5.9605D-08 -1.1921D-07          ION ALPHA
    7.9872D+04  8.1920D+04 -6.5536D+04 -4.5875D+05          ION BETA
    9.313225746155D-10-1.776356839400D-15   503808     1540 DELTA-UTC: A0,A1,T,W
                                                            END OF HEADER
 3 09  7 16  0  0  0.0 4.206039011478D-04 5.229594535194D-12 0.000000000000D+00
    1.340000000000D+02-2.953125000000D+01 5.719166797682D-09 1.688031815289D+00
   -1.581385731697D-06 1.207184430677D-02 7.858499884605D-06 5.153637954712D+03
    3.456000000000D+05-3.334134817123D-07-2.436258292371D+00-7.078051567078D-08
    9.264466491016D-01 2.143750000000D+02 9.139285805195D-01-8.570356989769D-09
   -2.075086435679D-10 1.000000000000D+00 1.540000000000D+03 0.000000000000D+00
    2.800000000000D+00 0.000000000000D+00-4.190951585770D-09 1.340000000000D+02
    3.384180000000D+05 4.000000000000D+00
19 09  7 16  0  0  0.0 1.891748979688D-05-1.364242052659D-12 0.000000000000D+00
    6.600000000000D+01-2.228125000000D+01 4.915204738007D-09 2.420893323764D+00
   -9.275972843170D-07 5.743648856878D-03 8.594244718552D-06 5.153627405167D+03
    3.456000000000D+05-1.490116119385D-08-2.247718310010D+00 1.657754182816D-07
    9.573953905838D-01 2.125625000000D+02-3.240978995213D-01-8.080336578452D-09
   -3.028697585983D-10 1.000000000000D+00 1.540000000000D+03 0.000000000000D+00
    2.000000000000D+00 0.000000000000D+00-1.443549990654D-08 6.600000000000D+01
    3.384180000000D+05 4.000000000000D+00
 6 09  7 16  0  0  0.0 1.934031024575D-04 1.091393642128D-11 0.000000000000D+00
    4.300000000000D+01-1.987500000000D+01 5.457727336250D-09-2.199361235446D+00
   -9.015202522278D-07 5.969058023766D-03 7.797032594681D-06 5.153695953369D+03
    3.456000000000D+05 1.676380634308D-08-2.368264844400D+00 8.568167686462D-08
    9.338658015677D-01 2.133125000000D+02-1.313376850869D+00-8.284273644678D-09
   -2.039370662260D-10 1.000000000000D+00 1.540000000000D+03 0.000000000000D+00
    2.000000000000D+00 0.000000000000D+00-4.656612873077D-09 4.300000000000D+01
    3.384180000000D+05 4.000000000000D+00
 7 09  7 16  0  0  0.0 1.517264172435D-05-6.821210263297D-13 0.000000000000D+00
    7.100000000000D+01-4.359375000000D+01 4.195174745867D-09 3.173340875414D-01
   -2.186745405197D-06 2.842333400622D-03 8.042901754379D-06 5.153665977478D+03
    3.456000000000D+05 5.029141902924D-08 1.868054687130D+00-3.352761268616D-08
    9.678588112044D-01 2.288125000000D+02 2.879405467664D+00-7.954617056015D-09
    3.321566928024D-10 1.000000000000D+00 1.540000000000D+03 0.000000000000D+00
    2.000000000000D+00 0.000000000000D+00-1.071020960808D-08 7.100000000000D+01
    3.384180000000D+05 4.000000000000D+00
25 09  7 16  0  0  0.0 5.100383423269D-04 1.728039933369D-11 0.000000000000D+00
    9.800000000000D+01-4.193750000000D+01 4.124457514496D-09-1.511576049747D+00
   -1.965090632439D-06 1.127790205646D-02 8.368864655495D-06 5.153652284622D+03
    3.456000000000D+05-1.974403858185D-07 1.773616379178D+00 1.750886440277D-07
    9.700450384067D-01 2.275000000000D+02-1.208985828461D+00-7.953902740547D-09
    3.110843864848D-10 1.000000000000D+00 1.540000000000D+03 0.000000000000D+00
    2.800000000000D+00 0.000000000000D+00-7.450580596924D-09 9.800000000000D+01
    3.384180000000D+05 4.000000000000D+00
21 09  7 16  0  0  0.0 2.532266080379D-06-2.160049916711D-12 0.000000000000D+00
    1.020000000000D+02 7.315625000000D+01 5.120213277435D-09-6.479919545745D-01
    3.673136234283D-06 1.549434242770D-02 9.339302778244D-06 5.153602716446D+03
    3.456000000000D+05 2.253800630569D-07-1.256556303677D+00 2.253800630569D-07
    9.334846294846D-01 1.846875000000D+02-2.579745442033D+00-8.444280309598D-09
   -2.900120801672D-10 1.000000000000D+00 1.540000000000D+03 0.000000000000D+00
    2.000000000000D+00 0.000000000000D+00-1.210719347000D-08 1.020000000000D+02
    3.384180000000D+05 4.000000000000D+00
16 09  7 16  0  0  0.0 3.243982791901D-05-3.637978807092D-12 0.000000000000D+00
    3.400000000000D+01-2.018750000000D+01 4.660194115791D-09-2.126988789438D+00
   -1.085922122002D-06 5.350428167731D-03 7.446855306625D-06 5.153578271866D+03
    3.456000000000D+05-1.434236764908D-07 2.937466118809D+00-8.195638656616D-08
    9.691872154292D-01 2.452500000000D+02-3.140868863167D-01-7.981761043814D-09
    3.407284784231D-10 1.000000000000D+00 1.540000000000D+03 0.000000000000D+00
    2.000000000000D+00 0.000000000000D+00-9.778887033463D-09 3.400000000000D+01
    3.384180000000D+05 4.000000000000D+00
18 09  7 16  0  0  0.0-3.969483077526D-05 3.183231456205D-12 0.000000000000D+00
    3.000000000000D+00 6.312500000000D+01 4.894132431689D-09-1.929472684065D+00
    3.248453140259D-06 1.069481158629D-02 3.792345523834D-06 5.153609285355D+03
    3.456000000000D+05 3.352761268616D-08-1.983670219141D-01-2.291053533554D-07
    9.418944159460D-01 2.989062500000D+02-2.406591283638D+00-8.286416591083D-09
    3.428714248282D-11 1.000000000000D+00 1.540000000000D+03 0.000000000000D+00
    2.000000000000D+00 0.000000000000D+00-1.071020960808D-08 3.000000000000D+00
    3.384180000000D+05 4.000000000000D+00
15 09  7 16  0  0  0.0-3.085909411311D-04-2.501110429876D-12 0.000000000000D+00
    1.500000000000D+01-4.687500000000D+01 4.528402911872D-09 2.699244977656D+00
   -2.477318048477D-06 1.486746128649D-03 5.090609192848D-06 5.153638193130D+03
    3.456000000000D+05 1.862645149231D-09 8.052340349440D-01 2.421438694000D-08
    9.562304074747D-01 2.771250000000D+02-4.861080102698D-01-8.250343659930D-09
   -1.317912039184D-10 1.000000000000D+00 1.540000000000D+03 0.000000000000D+00
    2.000000000000D+00 0.000000000000D+00-9.778887033463D-09 1.500000000000D+01
    3.384180000000D+05 4.000000000000D+00
22 09  7 16  0  0  0.0 1.953910104930D-04-7.958078640513D-13 0.000000000000D+00
    3.500000000000D+01 6.500000000000D+01 4.924490839096D-09-2.953748189297D+00
    3.369525074959D-06 5.179326399229D-03 4.192814230919D-06 5.153659297943D+03
    3.456000000000D+05-4.470348358154D-08-1.927856851548D-01-2.793967723846D-08
    9.395616350734D-01 2.878125000000D+02-1.898509083724D+00-8.344990459492D-09
   -1.214336296267D-11 1.000000000000D+00 1.540000000000D+03 0.000000000000D+00
    2.000000000000D+00 0.000000000000D+00-1.769512891769D-08 3.500000000000D+01
    3.394920000000D+05 4.000000000000D+00
28 09  7 16  0  0  0.0-2.594664692879D-05-1.136868377216D-13 0.000000000000D+00
    8.000000000000D+01-1.768750000000D+01 4.656622538449D-09-2.715491768412D+00
   -1.063570380211D-06 1.494505978189D-02 6.651505827904D-06 5.153646305084D+03
    3.456000000000D+05 3.166496753693D-07 2.945585998794D+00-9.499490261078D-08
    9.673911748112D-01 2.518125000000D+02-2.021400511948D+00-7.887114244252D-09
    3.650152043484D-10 1.000000000000D+00 1.540000000000D+03 0.000000000000D+00
    2.000000000000D+00 0.000000000000D+00-1.071020960808D-08 8.000000000000D+01
    3.394920000000D+05 4.000000000000D+00
11 09  7 16  0  0  0.0-1.076748594642D-05-1.591615728103D-12 0.000000000000D+00
    4.100000000000D+01 3.043750000000D+01 6.327406419018D-09 1.321823931501D-01
    1.752749085426D-06 9.498929604888D-03 8.830800652504D-06 5.153690179825D+03
    3.456000000000D+05 5.587935447693D-09-1.490375952964D+00 1.415610313416D-07
    8.889124019467D-01 1.660625000000D+02 7.055963274221D-01-8.963587655119D-09
   -3.453715289676D-10 1.000000000000D+00 1.540000000000D+03 0.000000000000D+00
    2.000000000000D+00 0.000000000000D+00-1.164153218269D-08 4.100000000000D+01
    3.410220000000D+05 4.000000000000D+00
26 09  7 16  0  0  0.0 6.470270454884D-05 1.136868377216D-13 0.000000000000D+00
    9.000000000000D+00-4.956250000000D+01 3.685510659169D-09 1.264150507457D-01
   -2.456828951836D-06 2.029392076656D-02 6.224960088730D-06 5.154907732010D+03
    3.456000000000D+05-2.030283212662D-07 8.765942308797D-01 3.650784492493D-07
    9.925807062505D-01 2.791562500000D+02 1.024517976589D+00-8.105337619846D-09
   -1.203621564241D-10 1.000000000000D+00 1.540000000000D+03 0.000000000000D+00
    2.000000000000D+00 0.000000000000D+00-6.519258022308D-09 9.000000000000D+00
    3.443820000000D+05 4.000000000000D+00
27 09  7 16  0  0  0.0 6.593437865376D-05 3.183231456205D-12 0.000000000000D+00
    1.250000000000D+02-4.587500000000D+01 3.934449599904D-09 2.691439036965D+00
   -2.536922693253D-06 2.128349000122D-02 9.065493941307D-06 5.153772134781D+03
    3.456000000000D+05 2.477318048477D-07 1.810177905770D+00-1.080334186554D-07
    9.747919252307D-01 2.096875000000D+02-1.572258686039D+00-7.449953177596D-09
    2.417957860507D-10 1.000000000000D+00 1.540000000000D+03 0.000000000000D+00
    2.000000000000D+00 0.000000000000D+00-4.190951585770D-09 1.250000000000D+02
    3.450720000000D+05 4.000000000000D+00
